{"type":"FeatureCollection","features":[{"type":"Feature","properties":{"id":"n-498483153","name":"Pasio-Irudien Museoa","category":"sight","city":"bilbao","district":"bilbao-ibaiondo"},"geometry":{"type":"Point","coordinates":[-2.920416,43.258185]}},{"type":"Feature","properties":{"id":"n-518227646","name":"Itsasmuseum Bilbao","category":"sight","city":"bilbao","district":"bilbao-abando"},"geometry":{"type":"Point","coordinates":[-2.946203,43.2664]}},{"type":"Feature","properties":{"id":"n-558723293","name":"Maman","category":"sight","city":"bilbao","district":"bilbao-abando"},"geometry":{"type":"Point","coordinates":[-2.932953,43.26916]}},{"type":"Feature","properties":{"id":"n-1271964866","name":"Rekalde aretoa","category":"sight","city":"bilbao","district":"bilbao-abando"},"geometry":{"type":"Point","coordinates":[-2.934568,43.264521]}},{"type":"Feature","properties":{"id":"n-1362782242","name":"Convento de San Francisco","category":"sight","city":"bilbao","district":"bilbao-ibaiondo"},"geometry":{"type":"Point","coordinates":[-2.926982,43.255896]}},{"type":"Feature","properties":{"id":"n-1803730613","name":"Hermanos Tonetti","category":"sight","city":"bilbao","district":"bilbao-abando"},"geometry":{"type":"Point","coordinates":[-2.938519,43.264706]}},{"type":"Feature","properties":{"id":"n-1803730685","name":"Ignacio Zuloaga","category":"sight","city":"bilbao","district":"bilbao-abando"},"geometry":{"type":"Point","coordinates":[-2.938023,43.266111]}},{"type":"Feature","properties":{"id":"n-1828478689","name":"Puerta de los Honorables","category":"sight","city":"bilbao","district":"bilbao-abando"},"geometry":{"type":"Point","coordinates":[-2.931435,43.268435]}},{"type":"Feature","properties":{"id":"n-1837416842","name":"Topalekua IV","category":"sight","city":"bilbao","district":"bilbao-abando"},"geometry":{"type":"Point","coordinates":[-2.938141,43.265199]}},{"type":"Feature","properties":{"id":"n-1837416843","name":"Homenaje a Juan Crisostomo Arriaga","category":"sight","city":"bilbao","district":"bilbao-abando"},"geometry":{"type":"Point","coordinates":[-2.937884,43.265597]}},{"type":"Feature","properties":{"id":"n-1837416846","name":"Ikusmira","category":"sight","city":"bilbao","district":"bilbao-abando"},"geometry":{"type":"Point","coordinates":[-2.937402,43.265608]}},{"type":"Feature","properties":{"id":"n-1848293984","name":"Sitios y lugares","category":"sight","city":"bilbao","district":"bilbao-abando"},"geometry":{"type":"Point","coordinates":[-2.942496,43.267911]}},{"type":"Feature","properties":{"id":"n-1848294090","name":"Begirari IV","category":"sight","city":"bilbao","district":"bilbao-abando"},"geometry":{"type":"Point","coordinates":[-2.937083,43.269046]}},{"type":"Feature","properties":{"id":"n-1848294142","name":"Judith","category":"sight","city":"bilbao","district":"bilbao-abando"},"geometry":{"type":"Point","coordinates":[-2.937948,43.269263]}},{"type":"Feature","properties":{"id":"n-1849848962","name":"Variante ovoide de la desocupación de la esfera","category":"sight","city":"bilbao","district":"bilbao-uribarri"},"geometry":{"type":"Point","coordinates":[-2.923673,43.263627]}},{"type":"Feature","properties":{"id":"n-3213180755","name":"John Adams","category":"sight","city":"bilbao","district":"bilbao-abando"},"geometry":{"type":"Point","coordinates":[-2.932336,43.262286]}},{"type":"Feature","properties":{"id":"n-3531190084","name":"Mirador de Artxanda","category":"sight","city":"bilbao","district":"bilbao-uribarri"},"geometry":{"type":"Point","coordinates":[-2.922028,43.274203]}},{"type":"Feature","properties":{"id":"n-3744497885","name":"Grúa","category":"sight","city":"bilbao","district":"bilbao-begona"},"geometry":{"type":"Point","coordinates":[-2.914159,43.25258]}},{"type":"Feature","properties":{"id":"n-3791426293","name":"La huella","category":"sight","city":"bilbao","district":"bilbao-uribarri"},"geometry":{"type":"Point","coordinates":[-2.921883,43.274191]}},{"type":"Feature","properties":{"id":"n-3791426294","name":"La rueda","category":"sight","city":"bilbao","district":"bilbao-uribarri"},"geometry":{"type":"Point","coordinates":[-2.920011,43.274231]}},{"type":"Feature","properties":{"id":"n-3814055472","name":"Iñaki Azkuna","category":"sight","city":"bilbao","district":"bilbao-deusto"},"geometry":{"type":"Point","coordinates":[-2.953565,43.267952]}},{"type":"Feature","properties":{"id":"n-3904709063","name":"Mirador de Uretamendi","category":"sight","city":"bilbao","district":"bilbao-errekalde"},"geometry":{"type":"Point","coordinates":[-2.949068,43.246953]}},{"type":"Feature","properties":{"id":"n-3922519111","name":"Bilboko zezen museoa","category":"sight","city":"bilbao","district":"bilbao-errekalde"},"geometry":{"type":"Point","coordinates":[-2.937236,43.255751]}},{"type":"Feature","properties":{"id":"n-4118860388","name":"Tulips","category":"sight","city":"bilbao","district":"bilbao-abando"},"geometry":{"type":"Point","coordinates":[-2.933892,43.269109]}},{"type":"Feature","properties":{"id":"n-4118860989","name":"Tall Tree & the Eye","category":"sight","city":"bilbao","district":"bilbao-abando"},"geometry":{"type":"Point","coordinates":[-2.934537,43.26918]}},{"type":"Feature","properties":{"id":"n-4119602091","name":"Pedro Arrupe","category":"sight","city":"bilbao","district":"bilbao-deusto"},"geometry":{"type":"Point","coordinates":[-2.936696,43.270586]}},{"type":"Feature","properties":{"id":"n-4242505503","name":"Conmemoración al Día del Mar","category":"sight","city":"bilbao","district":"bilbao-abando"},"geometry":{"type":"Point","coordinates":[-2.924408,43.263408]}},{"type":"Feature","properties":{"id":"n-4512332400","name":"Berriz Arangoiti","category":"sight","city":"bilbao","district":"bilbao-deusto"},"geometry":{"type":"Point","coordinates":[-2.947736,43.277264]}},{"type":"Feature","properties":{"id":"n-4533583654","name":"Busto de Unamuno","category":"sight","city":"bilbao","district":"bilbao-ibaiondo"},"geometry":{"type":"Point","coordinates":[-2.921759,43.258374]}},{"type":"Feature","properties":{"id":"n-4553849317","name":"Beteluriko jarlekua","category":"sight","city":"bilbao","district":"bilbao-ibaiondo"},"geometry":{"type":"Point","coordinates":[-2.922926,43.263835]}},{"type":"Feature","properties":{"id":"n-4699876290","name":"Fuerte Carlista de Banderas","category":"sight","city":"bilbao","district":"bilbao-deusto"},"geometry":{"type":"Point","coordinates":[-2.953049,43.280946]}},{"type":"Feature","properties":{"id":"n-4708209430","name":"Studio Arte Marquesteria","category":"sight","city":"bilbao","district":"bilbao-ibaiondo"},"geometry":{"type":"Point","coordinates":[-2.92162,43.257831]}},{"type":"Feature","properties":{"id":"n-4710001846","name":"Carré d'Artistes","category":"sight","city":"bilbao","district":"bilbao-ibaiondo"},"geometry":{"type":"Point","coordinates":[-2.923481,43.256812]}},{"type":"Feature","properties":{"id":"n-4723790314","name":"Galería Venus","category":"sight","city":"bilbao","district":"bilbao-abando"},"geometry":{"type":"Point","coordinates":[-2.933456,43.259791]}},{"type":"Feature","properties":{"id":"n-4732259602","name":"Llamas","category":"sight","city":"bilbao","district":"bilbao-abando"},"geometry":{"type":"Point","coordinates":[-2.935056,43.267]}},{"type":"Feature","properties":{"id":"n-4735919422","name":"Altzorra","category":"sight","city":"bilbao","district":"bilbao-deusto"},"geometry":{"type":"Point","coordinates":[-2.958696,43.285182]}},{"type":"Feature","properties":{"id":"n-5078478912","name":"A La Deriva","category":"sight","city":"bilbao","district":"bilbao-abando"},"geometry":{"type":"Point","coordinates":[-2.944051,43.267702]}},{"type":"Feature","properties":{"id":"n-5165680418","name":"Terpsícore Musa de la Danza","category":"sight","city":"bilbao","district":"bilbao-abando"},"geometry":{"type":"Point","coordinates":[-2.943973,43.267389]}},{"type":"Feature","properties":{"id":"n-5308301923","name":"Athletic Club Museoa","category":"sight","city":"bilbao","district":"bilbao-basurtu-zorrotza"},"geometry":{"type":"Point","coordinates":[-2.948179,43.264086]}},{"type":"Feature","properties":{"id":"n-5803813850","name":"Dodecathlos","category":"sight","city":"bilbao","district":"bilbao-abando"},"geometry":{"type":"Point","coordinates":[-2.943824,43.266575]}},{"type":"Feature","properties":{"id":"n-5803813851","name":"Maia","category":"sight","city":"bilbao","district":"bilbao-abando"},"geometry":{"type":"Point","coordinates":[-2.938895,43.269209]}},{"type":"Feature","properties":{"id":"n-5809180094","name":"Explorer's Book","category":"sight","city":"bilbao","district":"bilbao-abando"},"geometry":{"type":"Point","coordinates":[-2.936465,43.269265]}},{"type":"Feature","properties":{"id":"n-5810617311","name":"Chaos Nervión","category":"sight","city":"bilbao","district":"bilbao-abando"},"geometry":{"type":"Point","coordinates":[-2.936415,43.26792]}},{"type":"Feature","properties":{"id":"n-5902359597","name":"Dolmen de Irumugarrieta","category":"sight","city":"bilbao","district":"bilbao-otxarkoaga-txurdinaga"},"geometry":{"type":"Point","coordinates":[-2.884673,43.266036]}},{"type":"Feature","properties":{"id":"n-5975525377","name":"Elogio al Hierro III","category":"sight","city":"bilbao","district":"bilbao-abando"},"geometry":{"type":"Point","coordinates":[-2.93841,43.265181]}},{"type":"Feature","properties":{"id":"n-6190953271","name":"Inmaculada","category":"sight","city":"bilbao","district":"bilbao-abando"},"geometry":{"type":"Point","coordinates":[-2.92855,43.263481]}},{"type":"Feature","properties":{"id":"n-6190953272","name":"Sabino Arana","category":"sight","city":"bilbao","district":"bilbao-abando"},"geometry":{"type":"Point","coordinates":[-2.928028,43.262867]}},{"type":"Feature","properties":{"id":"n-6299624186","name":"Club Deportivo de Bilbao, Antiguo Frontón","category":"sight","city":"bilbao","district":"bilbao-abando"},"geometry":{"type":"Point","coordinates":[-2.933998,43.264496]}},{"type":"Feature","properties":{"id":"n-6435513253","name":"Monolito a la Sociedad \"El Sitio\"","category":"sight","city":"bilbao","district":"bilbao-ibaiondo"},"geometry":{"type":"Point","coordinates":[-2.920946,43.260073]}},{"type":"Feature","properties":{"id":"n-6492868642","name":"Mirador de Masustegi","category":"sight","city":"bilbao","district":"bilbao-basurtu-zorrotza"},"geometry":{"type":"Point","coordinates":[-2.957435,43.256424]}},{"type":"Feature","properties":{"id":"n-7198853436","name":"Alegorías a la música II","category":"sight","city":"bilbao","district":"bilbao-ibaiondo"},"geometry":{"type":"Point","coordinates":[-2.923944,43.260466]}},{"type":"Feature","properties":{"id":"n-7198853437","name":"Alegorías a la música I","category":"sight","city":"bilbao","district":"bilbao-ibaiondo"},"geometry":{"type":"Point","coordinates":[-2.924002,43.260397]}},{"type":"Feature","properties":{"id":"n-7198879749","name":"Balendin Enbeita","category":"sight","city":"bilbao","district":"bilbao-ibaiondo"},"geometry":{"type":"Point","coordinates":[-2.923867,43.26017]}},{"type":"Feature","properties":{"id":"n-7198881685","name":"Baco","category":"sight","city":"bilbao","district":"bilbao-ibaiondo"},"geometry":{"type":"Point","coordinates":[-2.923492,43.260923]}},{"type":"Feature","properties":{"id":"n-7198881686","name":"Pan","category":"sight","city":"bilbao","district":"bilbao-ibaiondo"},"geometry":{"type":"Point","coordinates":[-2.923168,43.26081]}},{"type":"Feature","properties":{"id":"n-7780308760","name":"Monolito","category":"sight","city":"bilbao","district":"bilbao-deusto"},"geometry":{"type":"Point","coordinates":[-2.941612,43.271337]}},{"type":"Feature","properties":{"id":"n-8059517316","name":"Hombre vence al hierro. Tuercebarras.","category":"sight","city":"bilbao","district":"bilbao-uribarri"},"geometry":{"type":"Point","coordinates":[-2.927299,43.266632]}},{"type":"Feature","properties":{"id":"n-8059551665","name":"Mascarón de proa","category":"sight","city":"bilbao","district":"bilbao-uribarri"},"geometry":{"type":"Point","coordinates":[-2.926283,43.265796]}},{"type":"Feature","properties":{"id":"n-8059556814","name":"Monumento a los marinos del Consulado de Bilbao","category":"sight","city":"bilbao","district":"bilbao-uribarri"},"geometry":{"type":"Point","coordinates":[-2.930281,43.269329]}},{"type":"Feature","properties":{"id":"n-8059588240","name":"Homenaje a Ramón Rubial","category":"sight","city":"bilbao","district":"bilbao-abando"},"geometry":{"type":"Point","coordinates":[-2.931609,43.268531]}},{"type":"Feature","properties":{"id":"n-8059641232","name":"Verdi","category":"sight","city":"bilbao","district":"bilbao-abando"},"geometry":{"type":"Point","coordinates":[-2.941608,43.266986]}},{"type":"Feature","properties":{"id":"n-8059644501","name":"Homenaje a Josu Loroño","category":"sight","city":"bilbao","district":"bilbao-abando"},"geometry":{"type":"Point","coordinates":[-2.940926,43.266831]}},{"type":"Feature","properties":{"id":"n-8059645971","name":"A los hombres y mujeres que...","category":"sight","city":"bilbao","district":"bilbao-abando"},"geometry":{"type":"Point","coordinates":[-2.939773,43.266271]}},{"type":"Feature","properties":{"id":"n-8059671739","name":"Monumento a Aureliano Valle","category":"sight","city":"bilbao","district":"bilbao-abando"},"geometry":{"type":"Point","coordinates":[-2.93866,43.266116]}},{"type":"Feature","properties":{"id":"n-8059675894","name":"El paseante","category":"sight","city":"bilbao","district":"bilbao-abando"},"geometry":{"type":"Point","coordinates":[-2.932541,43.261776]}},{"type":"Feature","properties":{"id":"n-8295063013","name":"Patroi","category":"sight","city":"bilbao","district":"bilbao-deusto"},"geometry":{"type":"Point","coordinates":[-2.963513,43.27651]}},{"type":"Feature","properties":{"id":"n-8706977695","name":"Juan Antonio Usparitza Lekunberri","category":"sight","city":"bilbao","district":"bilbao-abando"},"geometry":{"type":"Point","coordinates":[-2.937654,43.25938]}},{"type":"Feature","properties":{"id":"n-8954996673","name":"Artola","category":"sight","city":"bilbao","district":"bilbao-abando"},"geometry":{"type":"Point","coordinates":[-2.926221,43.260187]}},{"type":"Feature","properties":{"id":"n-8954996683","name":"Víctor de Chávarri","category":"sight","city":"bilbao","district":"bilbao-abando"},"geometry":{"type":"Point","coordinates":[-2.926652,43.259641]}},{"type":"Feature","properties":{"id":"n-9243038854","name":"Zirgariak","category":"sight","city":"bilbao","district":"bilbao-abando"},"geometry":{"type":"Point","coordinates":[-2.92977,43.267512]}},{"type":"Feature","properties":{"id":"n-9549407153","name":"La vaca del Athletic","category":"sight","city":"bilbao","district":"bilbao-abando"},"geometry":{"type":"Point","coordinates":[-2.930266,43.265814]}},{"type":"Feature","properties":{"id":"n-9889530730","name":"Burdin arimak","category":"sight","city":"bilbao","district":"bilbao-deusto"},"geometry":{"type":"Point","coordinates":[-2.946191,43.268364]}},{"type":"Feature","properties":{"id":"n-10730468796","name":"La exorcista","category":"sight","city":"bilbao","district":"bilbao-ibaiondo"},"geometry":{"type":"Point","coordinates":[-2.931864,43.256838]}},{"type":"Feature","properties":{"id":"n-10926036284","name":"Alonso de Ercilla","category":"sight","city":"bilbao","district":"bilbao-abando"},"geometry":{"type":"Point","coordinates":[-2.938491,43.261465]}},{"type":"Feature","properties":{"id":"n-11161380044","name":"Tigre","category":"sight","city":"bilbao","district":"bilbao-deusto"},"geometry":{"type":"Point","coordinates":[-2.945387,43.268987]}},{"type":"Feature","properties":{"id":"n-11202202333","name":"Ramon de Basterra Poeta","category":"sight","city":"bilbao","district":"bilbao-abando"},"geometry":{"type":"Point","coordinates":[-2.942886,43.265026]}},{"type":"Feature","properties":{"id":"n-11282359412","name":"7 Piedra caliza","category":"sight","city":"bilbao","district":"bilbao-abando"},"geometry":{"type":"Point","coordinates":[-2.934862,43.267084]}},{"type":"Feature","properties":{"id":"n-11282359413","name":"6 Arenisca","category":"sight","city":"bilbao","district":"bilbao-abando"},"geometry":{"type":"Point","coordinates":[-2.935058,43.266448]}},{"type":"Feature","properties":{"id":"n-11282359414","name":"5 Basalto","category":"sight","city":"bilbao","district":"bilbao-abando"},"geometry":{"type":"Point","coordinates":[-2.935255,43.265975]}},{"type":"Feature","properties":{"id":"n-11282359415","name":"4 Siderita","category":"sight","city":"bilbao","district":"bilbao-abando"},"geometry":{"type":"Point","coordinates":[-2.935422,43.265577]}},{"type":"Feature","properties":{"id":"n-11282359416","name":"3 Goethita","category":"sight","city":"bilbao","district":"bilbao-abando"},"geometry":{"type":"Point","coordinates":[-2.935551,43.26525]}},{"type":"Feature","properties":{"id":"n-11282359417","name":"2 Limonita","category":"sight","city":"bilbao","district":"bilbao-abando"},"geometry":{"type":"Point","coordinates":[-2.935777,43.264892]}},{"type":"Feature","properties":{"id":"n-11282359418","name":"1 Calcita","category":"sight","city":"bilbao","district":"bilbao-abando"},"geometry":{"type":"Point","coordinates":[-2.935862,43.264413]}},{"type":"Feature","properties":{"id":"n-11641427626","name":"Euskararen Etxea","category":"sight","city":"bilbao","district":"bilbao-deusto"},"geometry":{"type":"Point","coordinates":[-2.960465,43.27834]}},{"type":"Feature","properties":{"id":"n-11648908009","name":"Fire Fountain","category":"sight","city":"bilbao","district":"bilbao-abando"},"geometry":{"type":"Point","coordinates":[-2.933447,43.269085]}},{"type":"Feature","properties":{"id":"n-11659525870","name":"Vista de la Basilica de la Virgen de Begoña","category":"sight","city":"bilbao","district":"bilbao-ibaiondo"},"geometry":{"type":"Point","coordinates":[-2.925394,43.257732]}},{"type":"Feature","properties":{"id":"n-11728258663","name":"Iribar","category":"sight","city":"bilbao","district":"bilbao-basurtu-zorrotza"},"geometry":{"type":"Point","coordinates":[-2.947229,43.263466]}},{"type":"Feature","properties":{"id":"n-12250972024","name":"Escudo conmemorativo de la antigua Anteiglesia de Begoña","category":"sight","city":"bilbao","district":"bilbao-begona"},"geometry":{"type":"Point","coordinates":[-2.913348,43.258824]}},{"type":"Feature","properties":{"id":"n-12352411013","name":"Atalase","category":"sight","city":"bilbao","district":"bilbao-abando"},"geometry":{"type":"Point","coordinates":[-2.936428,43.267388]}},{"type":"Feature","properties":{"id":"n-12443710860","name":"Infanta Margarita","category":"sight","city":"bilbao","district":"bilbao-abando"},"geometry":{"type":"Point","coordinates":[-2.937089,43.261984]}},{"type":"Feature","properties":{"id":"n-12443710861","name":"Reina Mariana","category":"sight","city":"bilbao","district":"bilbao-abando"},"geometry":{"type":"Point","coordinates":[-2.937119,43.262]}},{"type":"Feature","properties":{"id":"n-12443710862","name":"Reina Mariana","category":"sight","city":"bilbao","district":"bilbao-abando"},"geometry":{"type":"Point","coordinates":[-2.937114,43.261981]}},{"type":"Feature","properties":{"id":"n-12601494458","name":"Gregorio Valparda","category":"sight","city":"bilbao","district":"bilbao-errekalde"},"geometry":{"type":"Point","coordinates":[-2.941856,43.256996]}},{"type":"Feature","properties":{"id":"n-13506545201","name":"Puerta del Ángel","category":"sight","city":"bilbao","district":"bilbao-ibaiondo"},"geometry":{"type":"Point","coordinates":[-2.923602,43.257343]}},{"type":"Feature","properties":{"id":"n-13510111101","name":"Palacio de Arana","category":"sight","city":"bilbao","district":"bilbao-ibaiondo"},"geometry":{"type":"Point","coordinates":[-2.924667,43.256094]}},{"type":"Feature","properties":{"id":"n-13510111201","name":"Palacio Gortázar","category":"sight","city":"bilbao","district":"bilbao-ibaiondo"},"geometry":{"type":"Point","coordinates":[-2.923754,43.259008]}},{"type":"Feature","properties":{"id":"n-13510115901","name":"Palacio Allende Salazar","category":"sight","city":"bilbao","district":"bilbao-ibaiondo"},"geometry":{"type":"Point","coordinates":[-2.923662,43.258364]}},{"type":"Feature","properties":{"id":"n-13510128901","name":"Casa Mazarredo","category":"sight","city":"bilbao","district":"bilbao-ibaiondo"},"geometry":{"type":"Point","coordinates":[-2.924474,43.257943]}},{"type":"Feature","properties":{"id":"n-13511850602","name":"Edificio de Aviación y Comercio","category":"sight","city":"bilbao","district":"bilbao-abando"},"geometry":{"type":"Point","coordinates":[-2.924611,43.262581]}},{"type":"Feature","properties":{"id":"n-13511872002","name":"Palacio Olabarri","category":"sight","city":"bilbao","district":"bilbao-uribarri"},"geometry":{"type":"Point","coordinates":[-2.929734,43.269119]}},{"type":"Feature","properties":{"id":"n-13511923301","name":"Casa Ramón de la Sota","category":"sight","city":"bilbao","district":"bilbao-abando"},"geometry":{"type":"Point","coordinates":[-2.937517,43.263313]}},{"type":"Feature","properties":{"id":"n-13511938801","name":"Palacio Txabarri Jauregia","category":"sight","city":"bilbao","district":"bilbao-abando"},"geometry":{"type":"Point","coordinates":[-2.935868,43.263422]}},{"type":"Feature","properties":{"id":"n-13511958501","name":"Edificio BBVA","category":"sight","city":"bilbao","district":"bilbao-abando"},"geometry":{"type":"Point","coordinates":[-2.929755,43.262122]}},{"type":"Feature","properties":{"id":"n-13512015301","name":"Chalet Allende","category":"sight","city":"bilbao","district":"bilbao-abando"},"geometry":{"type":"Point","coordinates":[-2.940517,43.259614]}},{"type":"Feature","properties":{"id":"n-13541201936","name":"Simón Bolívar","category":"sight","city":"bilbao","district":"bilbao-ibaiondo"},"geometry":{"type":"Point","coordinates":[-2.924053,43.257852]}},{"type":"Feature","properties":{"id":"n-13634272405","name":"Indalecio Prieto","category":"sight","city":"bilbao","district":"bilbao-abando"},"geometry":{"type":"Point","coordinates":[-2.927572,43.260625]}},{"type":"Feature","properties":{"id":"n-13898122598","name":"Doña Casilda Iturrizar","category":"sight","city":"bilbao","district":"bilbao-abando"},"geometry":{"type":"Point","coordinates":[-2.943544,43.265817]}},{"type":"Feature","properties":{"id":"n-13898257058","name":"Víctimas del terrorismo","category":"sight","city":"bilbao","district":"bilbao-abando"},"geometry":{"type":"Point","coordinates":[-2.941159,43.265757]}},{"type":"Feature","properties":{"id":"n-14063347051","name":"Jose Antonio de Aguirre","category":"sight","city":"bilbao","district":"bilbao-abando"},"geometry":{"type":"Point","coordinates":[-2.935638,43.26273]}},{"type":"Feature","properties":{"id":"n-14099216469","name":"Museo de Illusiones","category":"sight","city":"bilbao","district":"bilbao-abando"},"geometry":{"type":"Point","coordinates":[-2.925435,43.262192]}},{"type":"Feature","properties":{"id":"n-14136127687","name":"Simón Bolívar","category":"sight","city":"bilbao","district":"bilbao-abando"},"geometry":{"type":"Point","coordinates":[-2.924914,43.262778]}},{"type":"Feature","properties":{"id":"n-14136578466","name":"On Diego Lopez Harokoaren monumentua","category":"sight","city":"bilbao","district":"bilbao-abando"},"geometry":{"type":"Point","coordinates":[-2.927179,43.26129]}},{"type":"Feature","properties":{"id":"w-28211432","name":"Bilboko Arte Eder museoa","category":"sight","city":"bilbao","district":"bilbao-abando"},"geometry":{"type":"Point","coordinates":[-2.938014,43.265474]}},{"type":"Feature","properties":{"id":"w-28463782","name":"Basílica de Begoña / Begoñako basilika","category":"sight","city":"bilbao","district":"bilbao-begona"},"geometry":{"type":"Point","coordinates":[-2.913736,43.258756]}},{"type":"Feature","properties":{"id":"w-28757167","name":"Done Bikendi eliza / Iglesia de San Vicente Mártir","category":"sight","city":"bilbao","district":"bilbao-abando"},"geometry":{"type":"Point","coordinates":[-2.927725,43.263616]}},{"type":"Feature","properties":{"id":"w-40743563","name":"San Anton zubia","category":"sight","city":"bilbao","district":"bilbao-ibaiondo"},"geometry":{"type":"Point","coordinates":[-2.923083,43.254655]}},{"type":"Feature","properties":{"id":"w-41525574","name":"Joan Santuen eliza / Iglesia de los Santos Juanes","category":"sight","city":"bilbao","district":"bilbao-ibaiondo"},"geometry":{"type":"Point","coordinates":[-2.922147,43.257703]}},{"type":"Feature","properties":{"id":"w-41525575","name":"Euskal Museoa","category":"sight","city":"bilbao","district":"bilbao-ibaiondo"},"geometry":{"type":"Point","coordinates":[-2.921911,43.257996]}},{"type":"Feature","properties":{"id":"w-41577091","name":"San Anton eliza","category":"sight","city":"bilbao","district":"bilbao-ibaiondo"},"geometry":{"type":"Point","coordinates":[-2.923099,43.255168]}},{"type":"Feature","properties":{"id":"w-41789694","name":"San Nikolas eliza / Iglesia de San Nicolás","category":"sight","city":"bilbao","district":"bilbao-ibaiondo"},"geometry":{"type":"Point","coordinates":[-2.922587,43.260163]}},{"type":"Feature","properties":{"id":"w-47039973","name":"Larrako Torre","category":"sight","city":"bilbao","district":"bilbao-deusto"},"geometry":{"type":"Point","coordinates":[-2.959401,43.271775]}},{"type":"Feature","properties":{"id":"w-110896000","name":"Sabin Etxea zaharra","category":"sight","city":"bilbao","district":"bilbao-abando"},"geometry":{"type":"Point","coordinates":[-2.9279,43.263345]}},{"type":"Feature","properties":{"id":"w-111362547","name":"Jesusen Bihotza","category":"sight","city":"bilbao","district":"bilbao-basurtu-zorrotza"},"geometry":{"type":"Point","coordinates":[-2.945207,43.265253]}},{"type":"Feature","properties":{"id":"w-111363837","name":"Casa Lezama Leguizamón","category":"sight","city":"bilbao","district":"bilbao-abando"},"geometry":{"type":"Point","coordinates":[-2.939678,43.264323]}},{"type":"Feature","properties":{"id":"w-111403022","name":"Autoridad Portuaria de Bilbao","category":"sight","city":"bilbao","district":"bilbao-uribarri"},"geometry":{"type":"Point","coordinates":[-2.929628,43.269196]}},{"type":"Feature","properties":{"id":"w-115917278","name":"Grúa Karola","category":"sight","city":"bilbao","district":"bilbao-abando"},"geometry":{"type":"Point","coordinates":[-2.947151,43.266837]}},{"type":"Feature","properties":{"id":"w-118499485","name":"Bilboko Guggenheim museoa","category":"sight","city":"bilbao","district":"bilbao-abando"},"geometry":{"type":"Point","coordinates":[-2.933528,43.268444]}},{"type":"Feature","properties":{"id":"w-165888796","name":"Enkarnazio eliza / Iglesia de la Encarnación","category":"sight","city":"bilbao","district":"bilbao-ibaiondo"},"geometry":{"type":"Point","coordinates":[-2.920489,43.253549]}},{"type":"Feature","properties":{"id":"w-166743914","name":"Casa Anduiza","category":"sight","city":"bilbao","district":"bilbao-abando"},"geometry":{"type":"Point","coordinates":[-2.937499,43.264882]}},{"type":"Feature","properties":{"id":"w-173831537","name":"John jauregia (La Bolsa eraikina)","category":"sight","city":"bilbao","district":"bilbao-ibaiondo"},"geometry":{"type":"Point","coordinates":[-2.925246,43.25762]}},{"type":"Feature","properties":{"id":"w-173853329","name":"Bizkaiko Arkeologia Museoa","category":"sight","city":"bilbao","district":"bilbao-ibaiondo"},"geometry":{"type":"Point","coordinates":[-2.921281,43.258749]}},{"type":"Feature","properties":{"id":"w-174297152","name":"Zubizuri","category":"sight","city":"bilbao","district":"bilbao-abando"},"geometry":{"type":"Point","coordinates":[-2.927835,43.266369]}},{"type":"Feature","properties":{"id":"w-203275368","name":"Iglesia de San Francisco de Asís","category":"sight","city":"bilbao","district":"bilbao-abando"},"geometry":{"type":"Point","coordinates":[-2.932999,43.257571]}},{"type":"Feature","properties":{"id":"w-302860577","name":"Kobeta gotorlekua","category":"sight","city":"bilbao","district":"bilbao-basurtu-zorrotza"},"geometry":{"type":"Point","coordinates":[-2.962518,43.258986]}},{"type":"Feature","properties":{"id":"w-404432093","name":"Museo de reproducciones artísticas","category":"sight","city":"bilbao","district":"bilbao-ibaiondo"},"geometry":{"type":"Point","coordinates":[-2.928221,43.256014]}},{"type":"Feature","properties":{"id":"w-408647731","name":"Puppy","category":"sight","city":"bilbao","district":"bilbao-abando"},"geometry":{"type":"Point","coordinates":[-2.93452,43.267681]}},{"type":"Feature","properties":{"id":"w-415310126","name":"Convento de San Francisco","category":"sight","city":"bilbao","district":"bilbao-ibaiondo"},"geometry":{"type":"Point","coordinates":[-2.926982,43.25589]}},{"type":"Feature","properties":{"id":"w-418997512","name":"Barco Salvamento Bizkaia I","category":"sight","city":"bilbao","district":"bilbao-abando"},"geometry":{"type":"Point","coordinates":[-2.948285,43.266042]}},{"type":"Feature","properties":{"id":"w-418997513","name":"Gánguil Portu I","category":"sight","city":"bilbao","district":"bilbao-abando"},"geometry":{"type":"Point","coordinates":[-2.948896,43.265976]}},{"type":"Feature","properties":{"id":"w-418997514","name":"Velero de competición Euskadi-Europa 93 BBK","category":"sight","city":"bilbao","district":"bilbao-abando"},"geometry":{"type":"Point","coordinates":[-2.948092,43.265968]}},{"type":"Feature","properties":{"id":"w-418997516","name":"Remolcador Auntz","category":"sight","city":"bilbao","district":"bilbao-abando"},"geometry":{"type":"Point","coordinates":[-2.94706,43.266131]}},{"type":"Feature","properties":{"id":"w-418997522","name":"Gabarra Athletic","category":"sight","city":"bilbao","district":"bilbao-abando"},"geometry":{"type":"Point","coordinates":[-2.948965,43.265839]}},{"type":"Feature","properties":{"id":"w-418997523","name":"Barco Prácticos","category":"sight","city":"bilbao","district":"bilbao-abando"},"geometry":{"type":"Point","coordinates":[-2.948051,43.266081]}},{"type":"Feature","properties":{"id":"w-419507271","name":"Chimenea Bolueta","category":"sight","city":"bilbao","district":"bilbao-begona"},"geometry":{"type":"Point","coordinates":[-2.906192,43.246072]}},{"type":"Feature","properties":{"id":"w-518582008","name":"Iglesia de San José de la Montaña / San Jose Mendikoaren eliza","category":"sight","city":"bilbao","district":"bilbao-abando"},"geometry":{"type":"Point","coordinates":[-2.936032,43.264849]}},{"type":"Feature","properties":{"id":"w-589896685","name":"Grandes Molinos Vascos","category":"sight","city":"bilbao","district":"bilbao-basurtu-zorrotza"},"geometry":{"type":"Point","coordinates":[-2.970323,43.2806]}},{"type":"Feature","properties":{"id":"w-661285072","name":"Antonio Trueba","category":"sight","city":"bilbao","district":"bilbao-abando"},"geometry":{"type":"Point","coordinates":[-2.928735,43.263028]}},{"type":"Feature","properties":{"id":"w-814351707","name":"Aixerrota","category":"sight","city":"bilbao","district":"bilbao-deusto"},"geometry":{"type":"Point","coordinates":[-2.935242,43.277742]}},{"type":"Feature","properties":{"id":"w-890737414","name":"Arnotegi gotorlekua","category":"sight","city":"bilbao","district":"bilbao-ibaiondo"},"geometry":{"type":"Point","coordinates":[-2.934651,43.234049]}},{"type":"Feature","properties":{"id":"w-890741038","name":"Arraiz mendiko gaztelu-gotorlekua","category":"sight","city":"bilbao","district":"bilbao-errekalde"},"geometry":{"type":"Point","coordinates":[-2.960683,43.248897]}},{"type":"Feature","properties":{"id":"w-890741710","name":"Mirador de Arraiz","category":"sight","city":"bilbao","district":"bilbao-basurtu-zorrotza"},"geometry":{"type":"Point","coordinates":[-2.961042,43.249183]}},{"type":"Feature","properties":{"id":"w-893629648","name":"Casa Cuna","category":"sight","city":"bilbao","district":"bilbao-ibaiondo"},"geometry":{"type":"Point","coordinates":[-2.923035,43.254043]}},{"type":"Feature","properties":{"id":"w-965866080","name":"Izarra","category":"sight","city":"bilbao","district":"bilbao-abando"},"geometry":{"type":"Point","coordinates":[-2.930799,43.258912]}},{"type":"Feature","properties":{"id":"w-1102383328","name":"Zubizuri","category":"sight","city":"bilbao","district":"bilbao-abando"},"geometry":{"type":"Point","coordinates":[-2.92854,43.266097]}},{"type":"Feature","properties":{"id":"w-1102383329","name":"Zubizuri","category":"sight","city":"bilbao","district":"bilbao-uribarri"},"geometry":{"type":"Point","coordinates":[-2.927488,43.266595]}},{"type":"Feature","properties":{"id":"w-1370427917","name":"San José","category":"sight","city":"bilbao","district":"bilbao-deusto"},"geometry":{"type":"Point","coordinates":[-2.937245,43.272341]}},{"type":"Feature","properties":{"id":"w-1463923176","name":"Artxandako Lubakia","category":"sight","city":"bilbao","district":null},"geometry":{"type":"Point","coordinates":[-2.921408,43.275271]}},{"type":"Feature","properties":{"id":"w-1524809639","name":"FANAL. Jardin de delicias","category":"sight","city":"bilbao","district":"bilbao-abando"},"geometry":{"type":"Point","coordinates":[-2.937321,43.26583]}},{"type":"Feature","properties":{"id":"w-1537657016","name":"Restos del antiguo Depósito franco","category":"sight","city":"bilbao","district":"bilbao-abando"},"geometry":{"type":"Point","coordinates":[-2.928018,43.265401]}},{"type":"Feature","properties":{"id":"w-1552383836","name":"Dragoi Eskultura","category":"sight","city":"bilbao","district":"bilbao-otxarkoaga-txurdinaga"},"geometry":{"type":"Point","coordinates":[-2.907124,43.258615]}},{"type":"Feature","properties":{"id":"r-2727759","name":"Elizbarrutiko Arte Sakratuko Museoa","category":"sight","city":"bilbao","district":"bilbao-ibaiondo"},"geometry":{"type":"Point","coordinates":[-2.920704,43.253344]}},{"type":"Feature","properties":{"id":"r-7560683","name":"Done Jakue katedrala","category":"sight","city":"bilbao","district":"bilbao-ibaiondo"},"geometry":{"type":"Point","coordinates":[-2.923705,43.257207]}},{"type":"Feature","properties":{"id":"r-16543329","name":"Beneath Bilbao, the curious planet","category":"sight","city":"bilbao","district":"bilbao-abando"},"geometry":{"type":"Point","coordinates":[-2.935362,43.265749]}},{"type":"Feature","properties":{"id":"n-1550080079","name":"Bosque de piedra","category":"sight","city":"barakaldo","district":"barakaldo"},"geometry":{"type":"Point","coordinates":[-2.984614,43.297858]}},{"type":"Feature","properties":{"id":"n-1566988397","name":"Tximiniak","category":"sight","city":"barakaldo","district":"barakaldo"},"geometry":{"type":"Point","coordinates":[-2.988655,43.29499]}},{"type":"Feature","properties":{"id":"n-1652030931","name":"Moto Lube","category":"sight","city":"barakaldo","district":"barakaldo"},"geometry":{"type":"Point","coordinates":[-2.979597,43.28947]}},{"type":"Feature","properties":{"id":"n-2615500567","name":"Monumento a la Industria","category":"sight","city":"barakaldo","district":"barakaldo"},"geometry":{"type":"Point","coordinates":[-2.986748,43.296891]}},{"type":"Feature","properties":{"id":"n-2704634599","name":"Cargadero de la Franco-Belga","category":"sight","city":"barakaldo","district":"barakaldo"},"geometry":{"type":"Point","coordinates":[-2.976046,43.296599]}},{"type":"Feature","properties":{"id":"n-3707179561","name":"Busto de Clara Campoamor","category":"sight","city":"barakaldo","district":"barakaldo"},"geometry":{"type":"Point","coordinates":[-2.995122,43.294232]}},{"type":"Feature","properties":{"id":"n-3942328320","name":"Mirador de las Caras","category":"sight","city":"barakaldo","district":"barakaldo"},"geometry":{"type":"Point","coordinates":[-2.98771,43.273705]}},{"type":"Feature","properties":{"id":"n-3950849913","name":"Adán","category":"sight","city":"barakaldo","district":"barakaldo"},"geometry":{"type":"Point","coordinates":[-2.978754,43.284138]}},{"type":"Feature","properties":{"id":"n-4130187824","name":"Ramón Rubial","category":"sight","city":"barakaldo","district":"barakaldo"},"geometry":{"type":"Point","coordinates":[-3.000296,43.292643]}},{"type":"Feature","properties":{"id":"n-4130187825","name":"El Cartero Germán","category":"sight","city":"barakaldo","district":"barakaldo"},"geometry":{"type":"Point","coordinates":[-2.988584,43.296887]}},{"type":"Feature","properties":{"id":"n-4130634887","name":"Horreo","category":"sight","city":"barakaldo","district":"barakaldo"},"geometry":{"type":"Point","coordinates":[-2.992,43.29221]}},{"type":"Feature","properties":{"id":"n-4130634958","name":"Rosalía de Castro","category":"sight","city":"barakaldo","district":"barakaldo"},"geometry":{"type":"Point","coordinates":[-2.992034,43.2925]}},{"type":"Feature","properties":{"id":"n-4176737367","name":"Musutxu","category":"sight","city":"barakaldo","district":"barakaldo"},"geometry":{"type":"Point","coordinates":[-2.995091,43.28992]}},{"type":"Feature","properties":{"id":"n-4556202790","name":"Iglesia del Carmen","category":"sight","city":"barakaldo","district":"barakaldo"},"geometry":{"type":"Point","coordinates":[-2.984987,43.299487]}},{"type":"Feature","properties":{"id":"n-4753147022","name":"Memorial a las víctimas del terrorismo","category":"sight","city":"barakaldo","district":"barakaldo"},"geometry":{"type":"Point","coordinates":[-2.982282,43.29823]}},{"type":"Feature","properties":{"id":"n-5320090088","name":"Monolito al txistulari","category":"sight","city":"barakaldo","district":"barakaldo"},"geometry":{"type":"Point","coordinates":[-2.990747,43.297847]}},{"type":"Feature","properties":{"id":"n-5320090089","name":"La Salle , estatua","category":"sight","city":"barakaldo","district":"barakaldo"},"geometry":{"type":"Point","coordinates":[-2.990311,43.297783]}},{"type":"Feature","properties":{"id":"n-5635145012","name":"Haurren Alde","category":"sight","city":"barakaldo","district":"barakaldo"},"geometry":{"type":"Point","coordinates":[-2.992029,43.293915]}},{"type":"Feature","properties":{"id":"n-5775355988","name":"Farol","category":"sight","city":"barakaldo","district":"barakaldo"},"geometry":{"type":"Point","coordinates":[-2.999139,43.293378]}},{"type":"Feature","properties":{"id":"n-5928846683","name":"Mural homenaje al pasado minero (Altos Hornos)","category":"sight","city":"barakaldo","district":"barakaldo"},"geometry":{"type":"Point","coordinates":[-2.989694,43.291388]}},{"type":"Feature","properties":{"id":"n-5928898799","name":"Mural símbolo Celta","category":"sight","city":"barakaldo","district":"barakaldo"},"geometry":{"type":"Point","coordinates":[-2.990418,43.291851]}},{"type":"Feature","properties":{"id":"n-5954608301","name":"Cubes","category":"sight","city":"barakaldo","district":"barakaldo"},"geometry":{"type":"Point","coordinates":[-2.992307,43.293882]}},{"type":"Feature","properties":{"id":"n-5988350233","name":"Jardín Bienvenida a Barakaldo","category":"sight","city":"barakaldo","district":"barakaldo"},"geometry":{"type":"Point","coordinates":[-2.987037,43.287261]}},{"type":"Feature","properties":{"id":"n-5999005355","name":"Cargadero de Arnabal","category":"sight","city":"barakaldo","district":"barakaldo"},"geometry":{"type":"Point","coordinates":[-3.03148,43.268484]}},{"type":"Feature","properties":{"id":"n-7190109505","name":"Barakaldoko Historia eta Ingurumen Interpretaziorako Zentroa","category":"sight","city":"barakaldo","district":"barakaldo"},"geometry":{"type":"Point","coordinates":[-3.015282,43.263797]}},{"type":"Feature","properties":{"id":"n-10212822653","name":"Astilleros del Cadagua","category":"sight","city":"barakaldo","district":"barakaldo"},"geometry":{"type":"Point","coordinates":[-2.972844,43.283765]}},{"type":"Feature","properties":{"id":"n-12582820887","name":"Monumento a la Industria","category":"sight","city":"barakaldo","district":"barakaldo"},"geometry":{"type":"Point","coordinates":[-2.986688,43.296906]}},{"type":"Feature","properties":{"id":"n-12731698174","name":"Globo del Mundo Gigante","category":"sight","city":"barakaldo","district":"barakaldo"},"geometry":{"type":"Point","coordinates":[-2.98013,43.300157]}},{"type":"Feature","properties":{"id":"n-12734707923","name":"Seven Dacing Figures","category":"sight","city":"barakaldo","district":"barakaldo"},"geometry":{"type":"Point","coordinates":[-2.977508,43.298636]}},{"type":"Feature","properties":{"id":"n-14110378944","name":"Museo Mercedes-Benz Aguinaga","category":"sight","city":"barakaldo","district":"barakaldo"},"geometry":{"type":"Point","coordinates":[-3.00098,43.286329]}},{"type":"Feature","properties":{"id":"w-107522692","name":"Iglesia del Sagrado Corazón de Jesús","category":"sight","city":"barakaldo","district":"barakaldo"},"geometry":{"type":"Point","coordinates":[-2.994762,43.283391]}},{"type":"Feature","properties":{"id":"w-110234358","name":"Larrea jauregia","category":"sight","city":"barakaldo","district":"barakaldo"},"geometry":{"type":"Point","coordinates":[-2.982017,43.298115]}},{"type":"Feature","properties":{"id":"w-152382288","name":"Maqueta de Altos Hornos de Vizcaya","category":"sight","city":"barakaldo","district":"barakaldo"},"geometry":{"type":"Point","coordinates":[-2.98673,43.287701]}},{"type":"Feature","properties":{"id":"w-302860810","name":"Escuelas de Barrio de Larrazabal","category":"sight","city":"barakaldo","district":"barakaldo"},"geometry":{"type":"Point","coordinates":[-2.9736,43.25818]}},{"type":"Feature","properties":{"id":"w-302860888","name":"Escuelas de Barrio de Larrazabal","category":"sight","city":"barakaldo","district":"barakaldo"},"geometry":{"type":"Point","coordinates":[-2.973444,43.25865]}},{"type":"Feature","properties":{"id":"w-302861518","name":"Ermita de Santa Águeda","category":"sight","city":"barakaldo","district":"barakaldo"},"geometry":{"type":"Point","coordinates":[-2.980653,43.257425]}},{"type":"Feature","properties":{"id":"w-389715618","name":"Cargadero de La Orconera Iron Ore","category":"sight","city":"barakaldo","district":"barakaldo"},"geometry":{"type":"Point","coordinates":[-2.976042,43.296585]}},{"type":"Feature","properties":{"id":"w-551078041","name":"Fundación de Trabajadores de la Siderurgia Integral","category":"sight","city":"barakaldo","district":"barakaldo"},"geometry":{"type":"Point","coordinates":[-2.993877,43.293168]}},{"type":"Feature","properties":{"id":"w-628060702","name":"Pasarela Landabeko","category":"sight","city":"barakaldo","district":"barakaldo"},"geometry":{"type":"Point","coordinates":[-2.990132,43.29118]}},{"type":"Feature","properties":{"id":"w-688599286","name":"Casa-Torre de Zubileta","category":"sight","city":"barakaldo","district":"barakaldo"},"geometry":{"type":"Point","coordinates":[-2.974812,43.266377]}},{"type":"Feature","properties":{"id":"w-742408719","name":"Iglesia de San Vicente","category":"sight","city":"barakaldo","district":"barakaldo"},"geometry":{"type":"Point","coordinates":[-2.997097,43.29572]}},{"type":"Feature","properties":{"id":"w-742857117","name":"Casa Torre Lurkizaga","category":"sight","city":"barakaldo","district":"barakaldo"},"geometry":{"type":"Point","coordinates":[-2.985754,43.292266]}},{"type":"Feature","properties":{"id":"w-754822680","name":"Centro de Interpretación Histórica y Medioambiental de Barakaldo (CIHMA)","category":"sight","city":"barakaldo","district":"barakaldo"},"geometry":{"type":"Point","coordinates":[-3.015246,43.26382]}},{"type":"Feature","properties":{"id":"w-1311715690","name":"Euskadiko industria ondare higigarriaren zentroa","category":"sight","city":"barakaldo","district":"barakaldo"},"geometry":{"type":"Point","coordinates":[-2.978951,43.288838]}},{"type":"Feature","properties":{"id":"n-703782675","name":"Ariz dorrea","category":"sight","city":"basauri","district":"basauri"},"geometry":{"type":"Point","coordinates":[-2.880718,43.236919]}},{"type":"Feature","properties":{"id":"n-7714652285","name":"José Luis Ajá Fuentes","category":"sight","city":"basauri","district":"basauri"},"geometry":{"type":"Point","coordinates":[-2.886745,43.23847]}},{"type":"Feature","properties":{"id":"n-7714655885","name":"Homenaje a las víctimas del terrorismo","category":"sight","city":"basauri","district":"basauri"},"geometry":{"type":"Point","coordinates":[-2.886078,43.239944]}},{"type":"Feature","properties":{"id":"n-8856139717","name":"Sonrisa de sangre ajena","category":"sight","city":"basauri","district":"basauri"},"geometry":{"type":"Point","coordinates":[-2.88929,43.235254]}},{"type":"Feature","properties":{"id":"n-10735292608","name":"Bidebieta","category":"sight","city":"basauri","district":"basauri"},"geometry":{"type":"Point","coordinates":[-2.893865,43.23766]}},{"type":"Feature","properties":{"id":"w-116864783","name":"San Migel kultura-zentroa","category":"sight","city":"basauri","district":"basauri"},"geometry":{"type":"Point","coordinates":[-2.886941,43.218905]}},{"type":"Feature","properties":{"id":"n-5350972740","name":"Renaciendo de la Tierra","category":"sight","city":"erandio","district":"erandio"},"geometry":{"type":"Point","coordinates":[-2.977408,43.30437]}},{"type":"Feature","properties":{"id":"n-5350972741","name":"Astilleros","category":"sight","city":"erandio","district":"erandio"},"geometry":{"type":"Point","coordinates":[-2.977591,43.304342]}},{"type":"Feature","properties":{"id":"n-5350972742","name":"Pasado Industrial","category":"sight","city":"erandio","district":"erandio"},"geometry":{"type":"Point","coordinates":[-2.977377,43.304571]}},{"type":"Feature","properties":{"id":"n-8036307292","name":"Lechera","category":"sight","city":"erandio","district":"erandio"},"geometry":{"type":"Point","coordinates":[-2.982594,43.316187]}},{"type":"Feature","properties":{"id":"n-9143191196","name":"Monumento a la Industria","category":"sight","city":"erandio","district":"erandio"},"geometry":{"type":"Point","coordinates":[-2.983564,43.313008]}},{"type":"Feature","properties":{"id":"n-13775802536","name":"Laureano Jado","category":"sight","city":"erandio","district":"erandio"},"geometry":{"type":"Point","coordinates":[-2.975789,43.303689]}},{"type":"Feature","properties":{"id":"n-13775802537","name":"Niños besándose","category":"sight","city":"erandio","district":"erandio"},"geometry":{"type":"Point","coordinates":[-2.975619,43.302676]}},{"type":"Feature","properties":{"id":"n-13775802542","name":"Niños Jugando I","category":"sight","city":"erandio","district":"erandio"},"geometry":{"type":"Point","coordinates":[-2.982013,43.31533]}},{"type":"Feature","properties":{"id":"n-13775802543","name":"San Ignacio de Loyola","category":"sight","city":"erandio","district":"erandio"},"geometry":{"type":"Point","coordinates":[-2.975929,43.304175]}},{"type":"Feature","properties":{"id":"n-13775802547","name":"Tomás Aldecoa","category":"sight","city":"erandio","district":"erandio"},"geometry":{"type":"Point","coordinates":[-2.981064,43.315421]}},{"type":"Feature","properties":{"id":"n-13775802548","name":"Torso","category":"sight","city":"erandio","district":"erandio"},"geometry":{"type":"Point","coordinates":[-2.970428,43.291496]}},{"type":"Feature","properties":{"id":"n-13775802549","name":"Niños Jugando II","category":"sight","city":"erandio","district":"erandio"},"geometry":{"type":"Point","coordinates":[-2.971993,43.303203]}},{"type":"Feature","properties":{"id":"n-13775802553","name":"Vendejera","category":"sight","city":"erandio","district":"erandio"},"geometry":{"type":"Point","coordinates":[-2.971761,43.303995]}},{"type":"Feature","properties":{"id":"w-45780141","name":"Martiartu dorretxea","category":"sight","city":"erandio","district":"erandio"},"geometry":{"type":"Point","coordinates":[-2.963925,43.339721]}},{"type":"Feature","properties":{"id":"w-126513523","name":"Lavadero de Tartanga","category":"sight","city":"erandio","district":"erandio"},"geometry":{"type":"Point","coordinates":[-2.973605,43.308377]}},{"type":"Feature","properties":{"id":"w-202605970","name":"Iglesia de San Lorenzo","category":"sight","city":"erandio","district":"erandio"},"geometry":{"type":"Point","coordinates":[-2.981484,43.315458]}},{"type":"Feature","properties":{"id":"w-875912545","name":"San Pablo gotorleku karlista","category":"sight","city":"erandio","district":"erandio"},"geometry":{"type":"Point","coordinates":[-2.955077,43.28964]}},{"type":"Feature","properties":{"id":"w-895305565","name":"Casa-Torre de Asua","category":"sight","city":"erandio","district":"erandio"},"geometry":{"type":"Point","coordinates":[-2.939803,43.301102]}},{"type":"Feature","properties":{"id":"n-10560512344","name":"Arrigorriaga","category":"sight","city":"arrigorriaga","district":"arrigorriaga"},"geometry":{"type":"Point","coordinates":[-2.886941,43.211615]}},{"type":"Feature","properties":{"id":"w-277593389","name":"San Pedro de Abrisketa","category":"sight","city":"arrigorriaga","district":"arrigorriaga"},"geometry":{"type":"Point","coordinates":[-2.909394,43.210496]}},{"type":"Feature","properties":{"id":"n-4329062211","name":"San Roke","category":"sight","city":"sondika","district":"sondika"},"geometry":{"type":"Point","coordinates":[-2.915647,43.280572]}},{"type":"Feature","properties":{"id":"w-1463923176","name":"Artxandako Lubakia","category":"sight","city":"sondika","district":"sondika"},"geometry":{"type":"Point","coordinates":[-2.921408,43.275271]}},{"type":"Feature","properties":{"id":"n-1377409239","name":"Aintzinako gotorlekua","category":"sight","city":"zamudio","district":"zamudio"},"geometry":{"type":"Point","coordinates":[-2.855439,43.317853]}},{"type":"Feature","properties":{"id":"n-1377419852","name":"Gotorlekua","category":"sight","city":"zamudio","district":"zamudio"},"geometry":{"type":"Point","coordinates":[-2.855439,43.317954]}},{"type":"Feature","properties":{"id":"w-210553033","name":"Palacio Torrelarragoiti","category":"sight","city":"zamudio","district":"zamudio"},"geometry":{"type":"Point","coordinates":[-2.85486,43.275882]}},{"type":"Feature","properties":{"id":"w-341230104","name":"Iglesia de San Martín Obispo","category":"sight","city":"zamudio","district":"zamudio"},"geometry":{"type":"Point","coordinates":[-2.866775,43.284677]}},{"type":"Feature","properties":{"id":"w-537274642","name":"Cripta","category":"sight","city":"zamudio","district":"zamudio"},"geometry":{"type":"Point","coordinates":[-2.890992,43.292484]}},{"type":"Feature","properties":{"id":"w-537274643","name":"El bosque del recuerdo","category":"sight","city":"zamudio","district":"zamudio"},"geometry":{"type":"Point","coordinates":[-2.89024,43.293893]}},{"type":"Feature","properties":{"id":"n-7400064366","name":"Artibako kortarria","category":"sight","city":"alonsotegi","district":"alonsotegi"},"geometry":{"type":"Point","coordinates":[-2.977327,43.218287]}},{"type":"Feature","properties":{"id":"n-8093989917","name":"Mesa de orientación","category":"sight","city":"alonsotegi","district":"alonsotegi"},"geometry":{"type":"Point","coordinates":[-2.979576,43.202294]}},{"type":"Feature","properties":{"id":"w-122144919","name":"Nevero","category":"sight","city":"alonsotegi","district":"alonsotegi"},"geometry":{"type":"Point","coordinates":[-2.949162,43.219392]}},{"type":"Feature","properties":{"id":"w-393228462","name":"Nevero","category":"sight","city":"alonsotegi","district":"alonsotegi"},"geometry":{"type":"Point","coordinates":[-2.949158,43.21922]}}]}